[{"OBJECT_NAME":"SHENZHOU-22","OBJECT_ID":"2025-272A","EPOCH":"2026-03-13T17:55:20.995392","MEAN_MOTION":15.60891715,"ECCENTRICITY":0.00067405,"INCLINATION":41.4663,"RA_OF_ASC_NODE":183.4723,"ARG_OF_PERICENTER":298.0497,"MEAN_ANOMALY":61.966,"EPHEMERIS_TYPE":0,"CLASSIFICATION_TYPE":"U","NORAD_CAT_ID":66645,"ELEMENT_SET_NO":999,"REV_AT_EPOCH":26752,"BSTAR":0.00037303176,"MEAN_MOTION_DOT":0.00031927,"MEAN_MOTION_DDOT":0},{"OBJECT_NAME":"SOYUZ-MS 28","OBJECT_ID":"2025-275A","EPOCH":"2026-03-13T16:59:24.155808","MEAN_MOTION":15.48633802,"ECCENTRICITY":0.00078842,"INCLINATION":51.6324,"RA_OF_ASC_NODE":52.4887,"ARG_OF_PERICENTER":189.2977,"MEAN_ANOMALY":170.7866,"EPHEMERIS_TYPE":0,"CLASSIFICATION_TYPE":"U","NORAD_CAT_ID":66664,"ELEMENT_SET_NO":999,"REV_AT_EPOCH":55452,"BSTAR":0.00022432227,"MEAN_MOTION_DOT":0.0001178,"MEAN_MOTION_DDOT":0},{"OBJECT_NAME":"DUPLEX","OBJECT_ID":"1998-067XS","EPOCH":"2026-03-13T10:31:48.367200","MEAN_MOTION":15.56488826,"ECCENTRICITY":0.00026642,"INCLINATION":51.6291,"RA_OF_ASC_NODE":50.6945,"ARG_OF_PERICENTER":127.4743,"MEAN_ANOMALY":232.6492,"EPHEMERIS_TYPE":0,"CLASSIFICATION_TYPE":"U","NORAD_CAT_ID":66906,"ELEMENT_SET_NO":999,"REV_AT_EPOCH":1571,"BSTAR":0.00042282907,"MEAN_MOTION_DOT":0.00030156,"MEAN_MOTION_DDOT":0},{"OBJECT_NAME":"ISS OBJECT XT","OBJECT_ID":"1998-067XT","EPOCH":"2026-03-13T08:07:34.392000","MEAN_MOTION":15.70505609,"ECCENTRICITY":0.0004699,"INCLINATION":51.6247,"RA_OF_ASC_NODE":47.0068,"ARG_OF_PERICENTER":104.7322,"MEAN_ANOMALY":255.4197,"EPHEMERIS_TYPE":0,"CLASSIFICATION_TYPE":"U","NORAD_CAT_ID":66907,"ELEMENT_SET_NO":999,"REV_AT_EPOCH":1575,"BSTAR":0.0013594594,"MEAN_MOTION_DOT":0.00173594,"MEAN_MOTION_DDOT":0},{"OBJECT_NAME":"ISS OBJECT XU","OBJECT_ID":"1998-067XU","EPOCH":"2026-03-13T11:07:47.046144","MEAN_MOTION":15.70686547,"ECCENTRICITY":0.00048973,"INCLINATION":51.6245,"RA_OF_ASC_NODE":46.3387,"ARG_OF_PERICENTER":107.7206,"MEAN_ANOMALY":252.4326,"EPHEMERIS_TYPE":0,"CLASSIFICATION_TYPE":"U","NORAD_CAT_ID":66908,"ELEMENT_SET_NO":999,"REV_AT_EPOCH":1577,"BSTAR":0.0013010322,"MEAN_MOTION_DOT":0.0016725,"MEAN_MOTION_DDOT":0},{"OBJECT_NAME":"SILVERSAT","OBJECT_ID":"1998-067XV","EPOCH":"2026-03-13T07:56:09.861216","MEAN_MOTION":15.73849745,"ECCENTRICITY":0.00054068,"INCLINATION":51.6245,"RA_OF_ASC_NODE":46.1985,"ARG_OF_PERICENTER":105.6574,"MEAN_ANOMALY":254.5022,"EPHEMERIS_TYPE":0,"CLASSIFICATION_TYPE":"U","NORAD_CAT_ID":66909,"ELEMENT_SET_NO":999,"REV_AT_EPOCH":1576,"BSTAR":0.0015396189,"MEAN_MOTION_DOT":0.0022821,"MEAN_MOTION_DDOT":0},{"OBJECT_NAME":"ISS OBJECT XW","OBJECT_ID":"1998-067XW","EPOCH":"2026-03-13T04:59:13.857792","MEAN_MOTION":15.69697037,"ECCENTRICITY":0.00053164,"INCLINATION":51.6244,"RA_OF_ASC_NODE":47.6269,"ARG_OF_PERICENTER":107.7849,"MEAN_ANOMALY":252.3729,"EPHEMERIS_TYPE":0,"CLASSIFICATION_TYPE":"U","NORAD_CAT_ID":66910,"ELEMENT_SET_NO":999,"REV_AT_EPOCH":1573,"BSTAR":0.0012698754,"MEAN_MOTION_DOT":0.00156438,"MEAN_MOTION_DDOT":0},{"OBJECT_NAME":"ISS OBJECT XX","OBJECT_ID":"1998-067XX","EPOCH":"2026-03-13T04:38:14.491392","MEAN_MOTION":15.77377567,"ECCENTRICITY":0.00068943,"INCLINATION":51.6209,"RA_OF_ASC_NODE":46.0092,"ARG_OF_PERICENTER":108.6914,"MEAN_ANOMALY":251.4835,"EPHEMERIS_TYPE":0,"CLASSIFICATION_TYPE":"U","NORAD_CAT_ID":66911,"ELEMENT_SET_NO":999,"REV_AT_EPOCH":1574,"BSTAR":0.001694988,"MEAN_MOTION_DOT":0.00295789,"MEAN_MOTION_DDOT":0},{"OBJECT_NAME":"ISS OBJECT XY","OBJECT_ID":"1998-067XY","EPOCH":"2026-03-13T06:53:57.243840","MEAN_MOTION":15.64420991,"ECCENTRICITY":0.00034158,"INCLINATION":51.627,"RA_OF_ASC_NODE":48.9278,"ARG_OF_PERICENTER":112.5167,"MEAN_ANOMALY":247.619,"EPHEMERIS_TYPE":0,"CLASSIFICATION_TYPE":"U","NORAD_CAT_ID":66912,"ELEMENT_SET_NO":999,"REV_AT_EPOCH":1571,"BSTAR":0.0010103006,"MEAN_MOTION_DOT":0.00099603,"MEAN_MOTION_DDOT":0},{"OBJECT_NAME":"KNACKSAT-2","OBJECT_ID":"1998-067XZ","EPOCH":"2026-03-13T04:54:49.049568","MEAN_MOTION":15.5213255,"ECCENTRICITY":0.00094795,"INCLINATION":51.6314,"RA_OF_ASC_NODE":54.3798,"ARG_OF_PERICENTER":198.5087,"MEAN_ANOMALY":161.556,"EPHEMERIS_TYPE":0,"CLASSIFICATION_TYPE":"U","NORAD_CAT_ID":67683,"ELEMENT_SET_NO":999,"REV_AT_EPOCH":533,"BSTAR":0.0006702363,"MEAN_MOTION_DOT":0.00041086,"MEAN_MOTION_DDOT":0},{"OBJECT_NAME":"GXIBA-1","OBJECT_ID":"1998-067YA","EPOCH":"2026-03-13T22:37:28.479072","MEAN_MOTION":15.55060331,"ECCENTRICITY":0.00114543,"INCLINATION":51.6303,"RA_OF_ASC_NODE":50.3088,"ARG_OF_PERICENTER":190.0638,"MEAN_ANOMALY":170.0125,"EPHEMERIS_TYPE":0,"CLASSIFICATION_TYPE":"U","NORAD_CAT_ID":67684,"ELEMENT_SET_NO":999,"REV_AT_EPOCH":545,"BSTAR":0.0013324577,"MEAN_MOTION_DOT":0.0009208,"MEAN_MOTION_DDOT":0},{"OBJECT_NAME":"CORAL","OBJECT_ID":"1998-067YB","EPOCH":"2026-03-13T07:52:34.142016","MEAN_MOTION":15.52544385,"ECCENTRICITY":0.00113848,"INCLINATION":51.6311,"RA_OF_ASC_NODE":53.7042,"ARG_OF_PERICENTER":195.2471,"MEAN_ANOMALY":164.8178,"EPHEMERIS_TYPE":0,"CLASSIFICATION_TYPE":"U","NORAD_CAT_ID":67685,"ELEMENT_SET_NO":999,"REV_AT_EPOCH":535,"BSTAR":0.00074701894,"MEAN_MOTION_DOT":0.00046607,"MEAN_MOTION_DDOT":0},{"OBJECT_NAME":"ISS OBJECT YC","OBJECT_ID":"1998-067YC","EPOCH":"2026-03-13T21:36:32.160672","MEAN_MOTION":15.53224204,"ECCENTRICITY":0.00082001,"INCLINATION":51.631,"RA_OF_ASC_NODE":50.7781,"ARG_OF_PERICENTER":165.4316,"MEAN_ANOMALY":194.6912,"EPHEMERIS_TYPE":0,"CLASSIFICATION_TYPE":"U","NORAD_CAT_ID":67686,"ELEMENT_SET_NO":999,"REV_AT_EPOCH":544,"BSTAR":0.00097597336,"MEAN_MOTION_DOT":0.00062612,"MEAN_MOTION_DDOT":0},{"OBJECT_NAME":"LEOPARD","OBJECT_ID":"1998-067YD","EPOCH":"2026-03-13T21:50:33.158400","MEAN_MOTION":15.52390436,"ECCENTRICITY":0.00080404,"INCLINATION":51.6314,"RA_OF_ASC_NODE":50.8421,"ARG_OF_PERICENTER":169.2788,"MEAN_ANOMALY":190.8374,"EPHEMERIS_TYPE":0,"CLASSIFICATION_TYPE":"U","NORAD_CAT_ID":67687,"ELEMENT_SET_NO":999,"REV_AT_EPOCH":536,"BSTAR":0.00072588669,"MEAN_MOTION_DOT":0.00044954,"MEAN_MOTION_DDOT":0},{"OBJECT_NAME":"ISS OBJECT YE","OBJECT_ID":"1998-067YE","EPOCH":"2026-03-13T07:47:10.436640","MEAN_MOTION":15.52874098,"ECCENTRICITY":0.00080756,"INCLINATION":51.6312,"RA_OF_ASC_NODE":53.6814,"ARG_OF_PERICENTER":164.1724,"MEAN_ANOMALY":195.952,"EPHEMERIS_TYPE":0,"CLASSIFICATION_TYPE":"U","NORAD_CAT_ID":67688,"ELEMENT_SET_NO":999,"REV_AT_EPOCH":527,"BSTAR":0.00086880197,"MEAN_MOTION_DOT":0.00054923,"MEAN_MOTION_DDOT":0},{"OBJECT_NAME":"CREW DRAGON 12","OBJECT_ID":"2026-031A","EPOCH":"2026-03-13T16:59:24.155808","MEAN_MOTION":15.48633802,"ECCENTRICITY":0.00078842,"INCLINATION":51.6324,"RA_OF_ASC_NODE":52.4887,"ARG_OF_PERICENTER":189.2977,"MEAN_ANOMALY":170.7866,"EPHEMERIS_TYPE":0,"CLASSIFICATION_TYPE":"U","NORAD_CAT_ID":67796,"ELEMENT_SET_NO":999,"REV_AT_EPOCH":55685,"BSTAR":0.00022432227,"MEAN_MOTION_DOT":0.0001178,"MEAN_MOTION_DDOT":0}]
